NORAD_CAT_ID,OBJECT_NAME,OBJECT_TYPE,EPOCH,MEAN_MOTION,ECCENTRICITY,INCLINATION,RA_OF_ASC_NODE,ARG_OF_PERICENTER,MEAN_ANOMALY,BSTAR,MEAN_MOTION_DOT,MEAN_MOTION_DDOT,TLE_LINE0,TLE_LINE1,TLE_LINE2,SEMIMAJOR_AXIS,PERIOD,APOGEE,PERIGEE,DECAYED
53853.0,STARLINK-4794,PAYLOAD,2023-09-20 17:50:31,15.0881552,0.0001531,53.2199,18.3255,72.2981,287.8178,0.0011906,0.00018698,0.0,0 STARLINK-4794,1 53853U 22114AM  23263.74342517  .00018698  00000-0  11906-2 0  9994,2 53853  53.2199  18.3255 0001531  72.2981 287.8178 15.08815520 56421,6917.955,95.439,540.879,538.761,0.0
53853.0,STARLINK-4794,PAYLOAD,2023-09-21 08:09:00,15.08849421,0.0001346,53.2182,15.6468,64.325,295.7881,0.0014134,0.00022284,0.0,0 STARLINK-4794,1 53853U 22114AM  23264.33958543  .00022284  00000-0  14134-2 0  9994,2 53853  53.2182  15.6468 0001346  64.3250 295.7881 15.08849421 56510,6917.852,95.437,540.648,538.785,0.0
53853.0,STARLINK-4794,PAYLOAD,2023-09-21 12:55:09,15.08861885,0.0001401,53.2182,14.7554,64.3862,295.7275,0.0014932,0.0002357,0.0,0 STARLINK-4794,1 53853U 22114AM  23264.53830230  .00023570  00000-0  14932-2 0  9993,2 53853  53.2182  14.7554 0001401  64.3862 295.7275 15.08861885 57085,6917.813,95.436,540.648,538.709,0.0
53853.0,STARLINK-4794,PAYLOAD,2023-09-21 19:16:41,15.08879773,0.0001401,53.218,13.5657,61.3703,298.743,0.0016454,0.00026024,0.0,0 STARLINK-4794,1 53853U 22114AM  23264.80325597  .00026024  00000-0  16454-2 0  9996,2 53853  53.2180  13.5657 0001401  61.3703 298.7430 15.08879773 57121,6917.759,95.435,540.593,538.655,0.0
53853.0,STARLINK-4794,PAYLOAD,2023-09-22 00:02:50,15.0884837,6.88e-05,53.2198,12.673,89.9851,270.122,-0.00018089,-3.166e-05,0.0,0 STARLINK-4794,1 53853U 22114AM  23265.00197630 -.00003166  00000-0 -18089-3 0  9995,2 53853  53.2198  12.6730 0000688  89.9851 270.1220 15.08848370 56611,6917.855,95.437,540.196,539.244,0.0
53853.0,STARLINK-4794,PAYLOAD,2023-09-22 12:45:55,15.08858576,0.0001269,53.2177,10.295,70.1674,289.9454,0.0017054,0.00026971,0.0,0 STARLINK-4794,1 53853U 22114AM  23265.53189672  .00026971  00000-0  17054-2 0  9997,2 53853  53.2177  10.2950 0001269  70.1674 289.9454 15.08858576 57232,6917.824,95.436,540.566,538.811,0.0
53853.0,STARLINK-4794,PAYLOAD,2023-09-22 17:32:05,15.08867833,0.0001318,53.218,9.4025,70.3543,289.7591,0.0019452,0.00030829,0.0,0 STARLINK-4794,1 53853U 22114AM  23265.73061400  .00030829  00000-0  19452-2 0  9998,2 53853  53.2180   9.4025 0001318  70.3543 289.7591 15.08867833 56720,6917.795,95.436,540.572,538.749,0.0
53853.0,STARLINK-4794,PAYLOAD,2023-09-22 23:53:37,15.08854063,0.0001307,53.2176,8.213,87.1324,272.9818,0.0010967,0.00017216,0.0,0 STARLINK-4794,1 53853U 22114AM  23265.99557544  .00017216  00000-0  10967-2 0  9992,2 53853  53.2176   8.2130 0001307  87.1324 272.9818 15.08854063 56761,6917.837,95.437,540.607,538.798,0.0
53853.0,STARLINK-4794,PAYLOAD,2023-09-23 12:36:42,15.08853334,0.0001433,53.2176,5.8339,83.3682,276.7473,0.0005923,9.154e-05,0.0,0 STARLINK-4794,1 53853U 22114AM  23266.52549393  .00009154  00000-0  59230-3 0  9994,2 53853  53.2176   5.8339 0001433  83.3682 276.7473 15.08853334 56848,6917.84,95.437,540.696,538.713,0.0
53853.0,STARLINK-4794,PAYLOAD,2023-09-24 10:52:06,15.08846616,0.0002438,53.2171,1.669,126.7563,233.3653,0.00043874,6.703e-05,0.0,0 STARLINK-4794,1 53853U 22114AM  23267.45285571  .00006703  00000-0  43874-3 0  9996,2 53853  53.2171   1.6690 0002438 126.7563 233.3653 15.08846616 56982,6917.86,95.437,541.412,538.039,0.0
53853.0,STARLINK-4794,PAYLOAD,2023-09-24 14:02:53,15.08852421,0.0001345,53.2172,1.0752,94.7735,265.341,0.00085324,0.00013322,0.0,0 STARLINK-4794,1 53853U 22114AM  23267.58533688  .00013322  00000-0  85324-3 0  9996,2 53853  53.2172   1.0752 0001345  94.7735 265.3410 15.08852421 57547,6917.842,95.437,540.638,538.777,0.0
53853.0,STARLINK-4794,PAYLOAD,2023-09-24 15:38:16,15.08851176,0.0001387,53.2171,0.7783,94.2927,265.8224,0.0014337,0.0002261,0.0,0 STARLINK-4794,1 53853U 22114AM  23267.65157786  .00022610  00000-0  14337-2 0  9990,2 53853  53.2171   0.7783 0001387  94.2927 265.8224 15.08851176 57555,6917.846,95.437,540.671,538.752,0.0
53853.0,STARLINK-4794,PAYLOAD,2023-09-25 12:18:17,15.08864108,0.0001509,53.2176,356.9127,96.7761,263.3403,0.0019974,0.00031665,0.0,0 STARLINK-4794,1 53853U 22114AM  23268.51269882  .00031665  00000-0  19974-2 0  9999,2 53853  53.2176 356.9127 0001509  96.7761 263.3403 15.08864108 57682,6917.807,95.436,540.716,538.628,0.0
53853.0,STARLINK-4794,PAYLOAD,2023-09-25 18:39:49,15.08881342,0.0001394,53.217,355.7221,93.431,266.6842,0.0019654,0.00031165,0.0,0 STARLINK-4794,1 53853U 22114AM  23268.77765232  .00031165  00000-0  19654-2 0  9997,2 53853  53.2170 355.7221 0001394  93.4310 266.6842 15.08881342 57181,6917.754,95.435,540.583,538.655,0.0
53853.0,STARLINK-4794,PAYLOAD,2023-09-26 10:33:40,15.08829311,8.13e-05,53.2174,352.7511,47.7364,312.3697,-3.8246e-06,-3.48e-06,0.0,0 STARLINK-4794,1 53853U 22114AM  23269.44005186 -.00000348  00000-0 -38246-5 0  9999,2 53853  53.2174 352.7511 0000813  47.7364 312.3697 15.08829311 57286,6917.913,95.438,540.34,539.216,0.0
53853.0,STARLINK-4794,PAYLOAD,2023-09-26 12:09:03,15.08828438,7.39e-05,53.2174,352.4533,81.3651,278.7425,0.0003517,5.312e-05,0.0,0 STARLINK-4794,1 53853U 22114AM  23269.50629167  .00005312  00000-0  35170-3 0  9992,2 53853  53.2174 352.4533 0000739  81.3651 278.7425 15.08828438 57831,6917.916,95.438,540.292,539.269,0.0
53853.0,STARLINK-4794,PAYLOAD,2023-09-27 08:49:04,15.08850784,0.0001168,53.2162,348.5873,67.9012,292.2104,0.0013955,0.00021998,0.0,0 STARLINK-4794,1 53853U 22114AM  23270.36741737  .00021998  00000-0  13955-2 0  9990,2 53853  53.2162 348.5873 0001168  67.9012 292.2104 15.08850784 57428,6917.847,95.437,540.52,538.904,0.0
53853.0,STARLINK-4794,PAYLOAD,2023-09-27 11:59:50,15.08859972,0.0001213,53.2161,347.9907,83.6692,276.4438,0.0014454,0.00022803,0.0,0 STARLINK-4794,1 53853U 22114AM  23270.49989442  .00022803  00000-0  14454-2 0  9992,2 53853  53.2161 347.9907 0001213  83.6692 276.4438 15.08859972 57981,6917.819,95.436,540.523,538.845,0.0
53853.0,STARLINK-4794,PAYLOAD,2023-09-28 05:29:05,15.08841937,0.0001519,53.2181,344.7212,83.6616,276.4549,0.00082841,0.00012921,0.0,0 STARLINK-4794,1 53853U 22114AM  23271.22853990  .00012921  00000-0  82841-3 0  9998,2 53853  53.2181 344.7212 0001519  83.6616 276.4549 15.08841937 57550,6917.874,95.437,540.79,538.689,0.0
53853.0,STARLINK-4794,PAYLOAD,2023-09-28 10:15:15,15.08826016,0.0001268,53.2175,343.8309,102.8992,257.2142,0.00077966,0.00012137,0.0,0 STARLINK-4794,1 53853U 22114AM  23271.42726142  .00012137  00000-0  77966-3 0  9999,2 53853  53.2175 343.8309 0001268 102.8992 257.2142 15.08826016 57582,6917.923,95.438,540.665,538.911,0.0
53853.0,STARLINK-4794,PAYLOAD,2023-09-28 13:26:01,15.08826682,0.0001444,53.2179,343.2368,106.916,253.199,0.0013005,0.00020462,0.0,0 STARLINK-4794,1 53853U 22114AM  23271.55974276  .00020462  00000-0  13005-2 0  9999,2 53853  53.2179 343.2368 0001444 106.9160 253.1990 15.08826682 58141,6917.921,95.438,540.785,538.787,0.0
53853.0,STARLINK-4794,PAYLOAD,2023-09-29 10:06:03,15.08839073,0.00017,53.2181,339.3695,114.04,246.077,0.00069982,0.00010867,0.0,0 STARLINK-4794,1 53853U 22114AM  23272.42086832  .00010867  00000-0  69982-3 0  9992,2 53853  53.2181 339.3695 0001700 114.0400 246.0770 15.08839073 57734,6917.883,95.438,540.924,538.572,0.0
53853.0,STARLINK-4794,PAYLOAD,2023-09-30 11:32:12,15.08862072,0.0001517,53.2174,334.6137,98.6344,261.482,0.0006964,0.00010819,0.0,0 STARLINK-4794,1 53853U 22114AM  23273.48070034  .00010819  00000-0  69640-3 0  9994,2 53853  53.2174 334.6137 0001517  98.6344 261.4820 15.08862072 57894,6917.813,95.436,540.727,538.628,0.0
53853.0,STARLINK-4794,PAYLOAD,2023-09-30 21:04:30,15.08863929,0.00013,53.217,332.8284,80.8919,279.2221,0.00058613,9.059e-05,0.0,0 STARLINK-4794,1 53853U 22114AM  23273.87813600  .00009059  00000-0  58613-3 0  9993,2 53853  53.2170 332.8284 0001300  80.8919 279.2221 15.08863929 57955,6917.807,95.436,540.572,538.773,0.0
53853.0,STARLINK-4794,PAYLOAD,2023-10-01 12:58:22,15.08852548,0.0001691,53.2168,329.8539,81.1353,278.9831,0.000339,5.113e-05,0.0,0 STARLINK-4794,1 53853U 22114AM  23274.54053670  .00005113  00000-0  33900-3 0  9990,2 53853  53.2168 329.8539 0001691  81.1353 278.9831 15.08852548 58050,6917.842,95.437,540.877,538.537,0.0
53853.0,STARLINK-4794,PAYLOAD,2023-10-01 20:55:18,15.08832698,0.0001084,53.2171,328.3666,89.6718,270.4398,1.739e-05,-1.1e-07,0.0,0 STARLINK-4794,1 53853U 22114AM  23274.87173932 -.00000011  00000-0  17390-4 0  9999,2 53853  53.2171 328.3666 0001084  89.6718 270.4398 15.08832698 58647,6917.903,95.438,540.518,539.018,0.0
53853.0,STARLINK-4794,PAYLOAD,2023-10-01 22:30:41,15.08837149,0.0001516,53.2154,328.0709,86.5033,273.6133,-2.0017e-05,-6.07e-06,0.0,0 STARLINK-4794,1 53853U 22114AM  23274.93798112 -.00000607  00000-0 -20017-4 0  9991,2 53853  53.2154 328.0709 0001516  86.5033 273.6133 15.08837149 58119,6917.889,95.438,540.803,538.705,0.0
53853.0,STARLINK-4794,PAYLOAD,2023-10-02 20:46:06,15.08838122,0.0001622,53.2148,323.9057,88.1255,271.9923,0.00033415,5.034e-05,0.0,0 STARLINK-4794,1 53853U 22114AM  23275.86534886  .00005034  00000-0  33415-3 0  9992,2 53853  53.2148 323.9057 0001622  88.1255 271.9923 15.08838122 58798,6917.886,95.438,540.873,538.629,0.0
53853.0,STARLINK-4794,PAYLOAD,2023-10-03 03:07:38,15.08840573,0.0001627,53.2147,322.7162,85.6102,274.5076,0.00048672,7.467e-05,0.0,0 STARLINK-4794,1 53853U 22114AM  23276.13031009  .00007467  00000-0  48672-3 0  9995,2 53853  53.2147 322.7162 0001627  85.6102 274.5076 15.08840573 58295,6917.879,95.438,540.869,538.618,0.0
53853.0,STARLINK-4794,PAYLOAD,2023-10-03 09:29:11,15.08848656,0.0001631,53.2152,321.5256,92.5251,267.5928,0.0006717,0.00010421,0.0,0 STARLINK-4794,1 53853U 22114AM  23276.39526844  .00010421  00000-0  67170-3 0  9997,2 53853  53.2152 321.5256 0001631  92.5251 267.5928 15.08848656 58871,6917.854,95.437,540.847,538.591,0.0
